TRANSIT 16 [?]          
1 02807U 67048A   22200.11920031  .00000087  00000+0  11979-3 0  9999
2 02807  89.6524  35.4040 0022206 107.3830   9.8286 13.50316315715546
TRANSIT 17 [?]          
1 02965U 67092A   22200.54187831  .00000103  00000+0  13743-3 0  9993
2 02965  89.2415 120.9764 0045575 241.6555 292.0512 13.53028714703393
TRANSIT 18 [?]          
1 03133U 68012A   22200.16266424  .00000109  00000+0  15100-3 0  9993
2 03133  90.0063 271.6062 0075754 167.8476 221.3312 13.51155626677886
NNSS 19 [?]             
1 04507U 70067A   22199.67037910  .00000096  00000+0  12512-3 0  9990
2 04507  89.9207 239.1002 0170323 294.0237  64.3168 13.50829564554378
NNSS O-20 [?]           
1 06909U 73081A   22200.45544938  .00000169  00000+0  16420-3 0  9992
2 06909  89.8195 276.8518 0155872 200.3557 159.1349 13.70683344633679
TRANSAT [?]             
1 10457U 77106A   22200.52663407  .00000089  00000+0  12543-3 0  9991
2 10457  89.6843 121.4855 0025158 169.7894   3.6020 13.48681191200205
NOVA I [?]              
1 12458U 81044A   22200.54401230  .00000046  00000+0  89131-4 0  9997
2 12458  89.8899 107.3343 0012736 294.1905 239.7809 13.23065468987867
NOVA 3 [?]              
1 15362U 84110A   22199.72605899  .00000043  00000+0  82793-4 0  9999
2 15362  90.0970  67.2810 0032448 153.0508 275.6825 13.22834748822640
OSCAR 30 [?]            
1 15935U 85066A   22199.71043269  .00000043  00000+0  64270-4 0  9992
2 15935  90.1772  78.4657 0168845 350.9863  69.7687 13.35758128798576
OSCAR 24 [?]            
1 15936U 85066B   22199.71513133  .00000048  00000+0  73352-4 0  9991
2 15936  90.1717  70.4336 0169533 356.6603  69.2302 13.35618536800494
POLAR BEAR [?]          
1 17070U 86088A   22200.52932602  .00000077  00000+0  69165-4 0  9994
2 17070  89.5618 236.1349 0036879 266.5850 208.4360 13.74871665789350
OSCAR 27 [?]            
1 18361U 87080A   22200.51566004  .00000078  00000+0  11576-3 0  9992
2 18361  90.3282  35.3028 0104267 180.6212 179.4823 13.44566131708874
OSCAR 29 [?]            
1 18362U 87080B   22200.06239729  .00000082  00000+0  12343-3 0  9992
2 18362  90.3294  35.6185 0105251 202.3703 272.9910 13.44151643708409
OSCAR 23 [?]            
1 19070U 88033A   22199.99251135  .00000031  00000+0  44147-4 0  9994
2 19070  90.3335 337.7643 0190922  36.5118  84.3442 13.27523363657909
OSCAR 32 [?]            
1 19071U 88033B   22199.90326847  .00000032  00000+0  47633-4 0  9993
2 19071  90.3336 337.8475 0188824  24.7437  83.6833 13.27703276657725
NOVA 11 [?]             
1 19223U 88052A   22199.71100178  .00000061  00000+0  12463-3 0  9993
2 19223  89.9745  80.8046 0029789 196.2100 223.6110 13.22746157645144
OSCAR 25 [?]            
1 19419U 88074A   22200.03920299  .00000068  00000+0  10064-3 0  9998
2 19419  90.0028  17.9033 0096023 189.7674 283.7451 13.42297088659947
OSCAR 31 [?]            
1 19420U 88074B   22200.05317315  .00000035  00000+0  43709-4 0  9998
2 19420  90.0038  18.0825 0094400 183.8467 290.0282 13.42305687660055
